[
    {
        "Altitude(m)": 560905.5628871832,
        "Argument of Periapsis(deg)": 0.0,
        "Eccentricity": 0.0,
        "Inclination(deg)": 53.0,
        "Latitude(deg)": -25.776346896486967,
        "Longitude(deg)": -43.75190784066289,
        "Mean Anomaly(deg)": -147.2727,
        "RAAN(deg)": 215.0,
        "Satellite Name": "Starlink Shell 1 959",
        "Satellite Number": 959,
        "Semi-Major Axis(m)": 6931778.249405717,
        "Time(s)": 0
    },
    {
        "Altitude(m)": 561076.8419261901,
        "Argument of Periapsis(deg)": 0.00034857847951123687,
        "Eccentricity": 0.0,
        "Inclination(deg)": 53.0,
        "Latitude(deg)": -26.243786852020737,
        "Longitude(deg)": -43.32819730226148,
        "Mean Anomaly(deg)": -146.64586879644324,
        "RAAN(deg)": 214.99948122992254,
        "Satellite Name": "Starlink Shell 1 959",
        "Satellite Number": 959,
        "Semi-Major Axis(m)": 6931778.249405717,
        "Time(s)": 10
    },
    {
        "Altitude(m)": 561248.8096961157,
        "Argument of Periapsis(deg)": 0.0006971569590224737,
        "Eccentricity": 0.0,
        "Inclination(deg)": 53.0,
        "Latitude(deg)": -26.709665704028446,
        "Longitude(deg)": -42.90077522586601,
        "Mean Anomaly(deg)": -146.01903759288655,
        "RAAN(deg)": 214.99896245984505,
        "Satellite Name": "Starlink Shell 1 959",
        "Satellite Number": 959,
        "Semi-Major Axis(m)": 6931778.249405717,
        "Time(s)": 20
    },
    {
        "Altitude(m)": 561421.4031530474,
        "Argument of Periapsis(deg)": 0.0010457354385337105,
        "Eccentricity": 0.0,
        "Inclination(deg)": 53.0,
        "Latitude(deg)": -27.173939859577153,
        "Longitude(deg)": -42.469547402989555,
        "Mean Anomaly(deg)": -145.39220638932986,
        "RAAN(deg)": 214.99844368976758,
        "Satellite Name": "Starlink Shell 1 959",
        "Satellite Number": 959,
        "Semi-Major Axis(m)": 6931778.249405717,
        "Time(s)": 30
    },
    {
        "Altitude(m)": 561594.5588260709,
        "Argument of Periapsis(deg)": 0.0013943139180449475,
        "Eccentricity": 0.0,
        "Inclination(deg)": 53.0,
        "Latitude(deg)": -27.636564789861254,
        "Longitude(deg)": -42.03441783163056,
        "Mean Anomaly(deg)": -144.76537518577317,
        "RAAN(deg)": 214.99792491969012,
        "Satellite Name": "Starlink Shell 1 959",
        "Satellite Number": 959,
        "Semi-Major Axis(m)": 6931778.249405717,
        "Time(s)": 40
    },
    {
        "Altitude(m)": 561768.2128457593,
        "Argument of Periapsis(deg)": 0.0017428923975561844,
        "Eccentricity": 0.0,
        "Inclination(deg)": 53.0,
        "Latitude(deg)": -28.097495001807754,
        "Longitude(deg)": -41.59528971867571,
        "Mean Anomaly(deg)": -144.1385439822164,
        "RAAN(deg)": 214.99740614961263,
        "Satellite Name": "Starlink Shell 1 959",
        "Satellite Number": 959,
        "Semi-Major Axis(m)": 6931778.249405717,
        "Time(s)": 50
    },
    {
        "Altitude(m)": 561942.300972821,
        "Argument of Periapsis(deg)": 0.002091470877067421,
        "Eccentricity": 0.0,
        "Inclination(deg)": 53.0,
        "Latitude(deg)": -28.55668400919572,
        "Longitude(deg)": -41.152064971867766,
        "Mean Anomaly(deg)": -143.5117127786597,
        "RAAN(deg)": 214.9968873795352,
        "Satellite Name": "Starlink Shell 1 959",
        "Satellite Number": 959,
        "Semi-Major Axis(m)": 6931778.249405717,
        "Time(s)": 60
    },
    {
        "Altitude(m)": 562116.758626907,
        "Argument of Periapsis(deg)": 0.0024400493565786582,
        "Eccentricity": 0.0,
        "Inclination(deg)": 53.0,
        "Latitude(deg)": -29.014084303305985,
        "Longitude(deg)": -40.70464369443251,
        "Mean Anomaly(deg)": -142.88488157510298,
        "RAAN(deg)": 214.99636860945773,
        "Satellite Name": "Starlink Shell 1 959",
        "Satellite Number": 959,
        "Semi-Major Axis(m)": 6931778.249405717,
        "Time(s)": 70
    },
    {
        "Altitude(m)": 562291.520915608,
        "Argument of Periapsis(deg)": 0.002788627836089895,
        "Eccentricity": 0.0,
        "Inclination(deg)": 53.0,
        "Latitude(deg)": -29.469647323118565,
        "Longitude(deg)": -40.2529251954743,
        "Mean Anomaly(deg)": -142.25805037154632,
        "RAAN(deg)": 214.99584983938024,
        "Satellite Name": "Starlink Shell 1 959",
        "Satellite Number": 959,
        "Semi-Major Axis(m)": 6931778.249405717,
        "Time(s)": 80
    },
    {
        "Altitude(m)": 562466.5226635409,
        "Argument of Periapsis(deg)": 0.0031372063156011316,
        "Eccentricity": 0.0,
        "Inclination(deg)": 53.0,
        "Latitude(deg)": -29.923323425078973,
        "Longitude(deg)": -39.79680749063825,
        "Mean Anomaly(deg)": -141.63121916798954,
        "RAAN(deg)": 214.99533106930278,
        "Satellite Name": "Starlink Shell 1 959",
        "Satellite Number": 959,
        "Semi-Major Axis(m)": 6931778.249405717,
        "Time(s)": 90
    },
    {
        "Altitude(m)": 562641.6984415847,
        "Argument of Periapsis(deg)": 0.0034857847951123688,
        "Eccentricity": 0.0,
        "Inclination(deg)": 53.0,
        "Latitude(deg)": -30.375061852455808,
        "Longitude(deg)": -39.33618680618205,
        "Mean Anomaly(deg)": -141.0043879644328,
        "RAAN(deg)": 214.9948122992253,
        "Satellite Name": "Starlink Shell 1 959",
        "Satellite Number": 959,
        "Semi-Major Axis(m)": 6931778.249405717,
        "Time(s)": 100
    },
    {
        "Altitude(m)": 562816.9825962287,
        "Argument of Periapsis(deg)": 0.003834363274623606,
        "Eccentricity": 0.0,
        "Inclination(deg)": 53.0,
        "Latitude(deg)": -30.824810704324054,
        "Longitude(deg)": -38.870958599611114,
        "Mean Anomaly(deg)": -140.37755676087613,
        "RAAN(deg)": 214.9942935291478,
        "Satellite Name": "Starlink Shell 1 959",
        "Satellite Number": 959,
        "Semi-Major Axis(m)": 6931778.249405717,
        "Time(s)": 110
    },
    {
        "Altitude(m)": 562992.3092789997,
        "Argument of Periapsis(deg)": 0.004182941754134842,
        "Eccentricity": 0.0,
        "Inclination(deg)": 53.0,
        "Latitude(deg)": -31.272516904202053,
        "Longitude(deg)": -38.401017071427695,
        "Mean Anomaly(deg)": -139.75072555731938,
        "RAAN(deg)": 214.99377475907033,
        "Satellite Name": "Starlink Shell 1 959",
        "Satellite Number": 959,
        "Semi-Major Axis(m)": 6931778.249405717,
        "Time(s)": 120
    },
    {
        "Altitude(m)": 563167.6124759758,
        "Argument of Periapsis(deg)": 0.004531520233646079,
        "Eccentricity": 0.0,
        "Inclination(deg)": 53.0,
        "Latitude(deg)": -31.71812616838148,
        "Longitude(deg)": -37.9262546811876,
        "Mean Anomaly(deg)": -139.12389435376275,
        "RAAN(deg)": 214.99325598899287,
        "Satellite Name": "Starlink Shell 1 959",
        "Satellite Number": 959,
        "Semi-Major Axis(m)": 6931778.249405717,
        "Time(s)": 130
    },
    {
        "Altitude(m)": 563342.826037386,
        "Argument of Periapsis(deg)": 0.0048800987131573164,
        "Eccentricity": 0.0,
        "Inclination(deg)": 53.0,
        "Latitude(deg)": -32.1615829739981,
        "Longitude(deg)": -37.44656318106981,
        "Mean Anomaly(deg)": -138.49706315020595,
        "RAAN(deg)": 214.99273721891538,
        "Satellite Name": "Starlink Shell 1 959",
        "Satellite Number": 959,
        "Semi-Major Axis(m)": 6931778.249405717,
        "Time(s)": 140
    },
    {
        "Altitude(m)": 563517.8837072229,
        "Argument of Periapsis(deg)": 0.005228677192668553,
        "Eccentricity": 0.0,
        "Inclination(deg)": 53.0,
        "Latitude(deg)": -32.60283052688523,
        "Longitude(deg)": -36.96183314156865,
        "Mean Anomaly(deg)": -137.87023194664926,
        "RAAN(deg)": 214.99221844883792,
        "Satellite Name": "Starlink Shell 1 959",
        "Satellite Number": 959,
        "Semi-Major Axis(m)": 6931778.249405717,
        "Time(s)": 150
    },
    {
        "Altitude(m)": 563692.7191529174,
        "Argument of Periapsis(deg)": 0.00557725567217979,
        "Eccentricity": 0.0,
        "Inclination(deg)": 53.0,
        "Latitude(deg)": -33.04181072926991,
        "Longitude(deg)": -36.47195348255212,
        "Mean Anomaly(deg)": -137.24340074309256,
        "RAAN(deg)": 214.99169967876045,
        "Satellite Name": "Starlink Shell 1 959",
        "Satellite Number": 959,
        "Semi-Major Axis(m)": 6931778.249405717,
        "Time(s)": 160
    },
    {
        "Altitude(m)": 563867.2659950565,
        "Argument of Periapsis(deg)": 0.0059258341516910265,
        "Eccentricity": 0.0,
        "Inclination(deg)": 53.0,
        "Latitude(deg)": -33.47846414737326,
        "Longitude(deg)": -35.97681252295547,
        "Mean Anomaly(deg)": -136.61656953953582,
        "RAAN(deg)": 214.99118090868296,
        "Satellite Name": "Starlink Shell 1 959",
        "Satellite Number": 959,
        "Semi-Major Axis(m)": 6931778.249405717,
        "Time(s)": 170
    },
    {
        "Altitude(m)": 564041.4578370622,
        "Argument of Periapsis(deg)": 0.006274412631202263,
        "Eccentricity": 0.0,
        "Inclination(deg)": 53.0,
        "Latitude(deg)": -33.9127299789799,
        "Longitude(deg)": -35.47629752377361,
        "Mean Anomaly(deg)": -135.98973833597913,
        "RAAN(deg)": 214.9906621386055,
        "Satellite Name": "Starlink Shell 1 959",
        "Satellite Number": 959,
        "Semi-Major Axis(m)": 6931778.249405717,
        "Time(s)": 180
    }
]